OBJECT_NAME,OBJECT_ID,EPOCH,MEAN_MOTION,ECCENTRICITY,INCLINATION,RA_OF_ASC_NODE,ARG_OF_PERICENTER,MEAN_ANOMALY,EPHEMERIS_TYPE,CLASSIFICATION_TYPE,NORAD_CAT_ID,ELEMENT_SET_NO,REV_AT_EPOCH,BSTAR,MEAN_MOTION_DOT,MEAN_MOTION_DDOT
TDRS 13,2017-047A,2026-06-27T03:53:49.269984,1.00272691,.00150975,3.4540,2.9864,107.3050,212.0144,0,U,42915,999,3244,0,-.9E-6,0
QZS-3 (MICHIBIKI-3),2017-048A,2026-06-27T04:33:22.977792,1.00271889,.00022901,0.0683,147.5285,304.9762,18.1923,0,U,42917,999,3236,0,-.336E-5,0
AMAZONAS 5,2017-053A,2026-06-26T19:49:50.305152,1.00272475,.0001938,0.0317,326.0602,89.2725,96.0689,0,U,42934,999,3214,0,-.271E-5,0
ASIASAT 9,2017-057A,2026-06-27T00:41:38.785632,1.00263802,.00023403,0.0435,56.2206,35.2991,316.1973,0,U,42942,999,3195,0,0,0
INTELSAT 37E (IS-37E),2017-059A,2026-06-27T03:51:56.949984,1.00271499,.00028933,0.0043,88.3882,6.2338,220.6422,0,U,42950,999,3216,0,-.129E-5,0
BSAT-4A,2017-059B,2026-06-27T01:03:04.332960,1.00271093,.00042308,0.0362,18.0175,56.6248,326.1138,0,U,42951,999,3189,0,-.339E-5,0
QZS-4 (MICHIBIKI-4),2017-062A,2026-06-26T08:02:03.810048,1.00296962,.0746721,40.1041,343.3683,268.2556,281.2054,0,U,42965,999,3189,0,-.355E-5,0
SES-11 (ECHOSTAR 105),2017-063A,2026-06-27T05:09:50.565312,1.00271773,.00029959,0.0308,307.4613,145.4845,154.8995,0,U,42967,999,3182,0,-.78E-6,0
KOREASAT 5A,2017-067A,2026-06-27T01:04:04.236672,1.00272579,.00009259,0.0106,349.6971,98.6836,315.9519,0,U,42984,999,3162,0,-.347E-5,0
ALCOMSAT 1,2017-078A,2026-06-27T00:24:44.430624,1.00269936,.00026714,0.0210,18.7955,73.1108,164.6124,0,U,43039,999,3139,0,0,0
SBIRS GEO-3 (USA 282),2018-009A,2026-06-27T04:54:22.274208,1.00272800,.00023037,2.1911,12.5803,76.3474,100.5804,0,U,43162,999,3094,0,.138E-5,0
AL YAH 3,2018-012A,2026-06-27T03:51:19.510272,1.00272089,.00041641,1.5773,83.0021,10.1922,219.7979,0,U,43174,999,3094,0,-.145E-5,0
SES-14,2018-012B,2026-06-27T04:50:38.683104,1.00271580,.00013073,0.0155,23.9304,75.4288,201.1145,0,U,43175,999,712,0,-.267E-5,0
GOES 17,2018-022A,2026-06-27T04:41:38.568192,1.00272677,.00007126,0.9620,85.5465,25.2624,145.4023,0,U,43226,999,3052,0,-.172E-5,0
HISPASAT 30W-6,2018-023A,2026-06-26T10:41:58.499808,1.00273554,.0005973,0.0436,43.2096,33.8480,327.9970,0,U,43228,999,3049,0,-.205E-5,0
SUPERBIRD-B3,2018-033A,2026-06-27T04:43:15.839040,1.00273734,.00011824,0.0167,350.2450,101.8683,56.0154,0,U,43271,999,3016,0,-.8E-6,0
HYLAS 4,2018-033B,2026-06-27T04:42:38.737152,1.00264722,.00012104,0.0274,22.9800,110.9678,178.4956,0,U,43272,999,3016,0,0,0
IRNSS-1I,2018-035A,2026-06-24T19:11:38.629824,1.00275960,.00176215,28.7725,74.0767,182.3144,359.3363,0,U,43286,999,3015,0,.66E-6,0
USA 283,2018-036A,2026-06-25T09:48:28.433088,1.00269479,.0000352,0.0077,1.2048,95.8048,97.7845,0,U,43339,999,2537,0,0,0
COSMOS 2526,2018-037A,2026-06-27T04:33:30.466080,1.00271641,.0000762,0.0331,81.5419,169.0548,221.1432,0,U,43432,999,3006,0,-.333E-5,0
APSTAR-6C,2018-041A,2026-06-26T21:44:41.815392,1.00271209,.0000708,0.0216,354.4466,17.5724,3.1934,0,U,43450,999,2990,0,-.306E-5,0
BANGABANDHUSAT-1,2018-044A,2026-06-27T01:05:41.580960,1.00272346,.0002066,0.0164,53.4954,45.8280,311.3631,0,U,43463,999,2980,0,-.351E-5,0
SES-12,2018-049A,2026-06-27T02:41:32.123904,1.00270359,.00003958,0.0122,7.5043,257.5459,145.5564,0,U,43488,999,2951,0,-.258E-5,0
FENGYUN 2H,2018-050A,2026-06-27T02:37:02.554176,1.00269779,.00016995,3.0571,78.9644,123.0661,191.7900,0,U,43491,999,2953,0,-.12E-5,0
BEIDOU-2 IGSO-7,2018-057A,2026-06-26T12:08:29.940576,1.00249004,.0104768,55.1970,162.9757,237.9790,164.9478,0,U,43539,999,2922,0,-.28E-6,0
TELSTAR 19V,2018-059A,2026-06-27T05:21:46.161216,1.00270378,.00030348,0.0372,147.6321,328.9138,176.2244,0,U,43562,999,2924,0,-.268E-5,0
TELKOM 4 (MERAH PUTIH),2018-064A,2026-06-27T01:02:34.380672,1.00272463,.00016704,0.0170,66.7361,51.2933,280.7699,0,U,43587,999,2897,0,-.332E-5,0
TELSTAR 18V,2018-069A,2026-06-26T23:28:29.413344,1.00273183,.00022437,0.0171,335.0364,116.1150,314.0507,0,U,43611,999,2873,0,-.282E-5,0
AZERSPACE 2 (IS-38),2018-074A,2026-06-27T04:09:55.227168,1.00270667,.00017092,0.0274,17.8346,80.2276,284.8179,0,U,43632,999,2854,0,0,0
HORIZONS-3E,2018-074B,2026-06-26T21:54:40.856832,1.00268864,.0000627,0.0051,291.0865,17.8683,103.7557,0,U,43633,999,2843,0,-.19E-6,0
AEHF-4 (USA 288),2018-079A,2026-06-27T04:25:38.699616,1.00269958,.00600827,1.4348,4.8249,355.9076,273.4428,0,U,43651,999,2839,0,-.264E-5,0
BEIDOU-3 G1,2018-085A,2026-06-27T04:42:45.886752,1.00271091,.00085654,2.8940,97.1046,351.6888,57.1335,0,U,43683,999,2816,0,-.1E-5,0
